ITASAT                  
1 43786U 18099AE  26068.37895645  .00008243  00000+0  41168-3 0  9993
2 43786  97.4161 121.9137 0012266 347.5066  12.5862 15.17669542397762
JILIN-1 09              
1 43943U 19005B   26068.90926115  .00006478  00000+0  30815-3 0  9997
2 43943  97.4701 164.8178 0003739  87.3947 272.7716 15.19514186394063
